{"type":"Topology","arcs":[[[0,687],[12,21],[57,-52],[6,-62],[46,14],[23,50],[16,-12],[42,-72],[29,-81],[4,-82],[-7,-54],[6,-42],[5,-71],[25,-34],[28,-106],[-2,-41],[-49,-8],[-67,89],[-83,96],[-8,62],[-40,80],[-10,100],[-25,66],[7,88],[-15,51]],[[1248,406],[-61,21],[-81,0],[-24,-138],[-27,-42],[-36,-167],[-57,-26],[-66,34],[-34,-11],[-41,-61],[-45,9],[-45,-25],[-48,68],[-12,81],[52,-41],[54,22],[14,102],[30,23],[84,26],[50,96],[35,76]],[[990,453],[32,-63],[14,42],[34,-4],[4,77],[3,59]],[[1077,564],[54,84],[36,94],[28,1],[36,-61],[3,-53],[46,-33],[59,-37],[-5,-47],[-47,-6],[12,-59],[-51,-41]],[[990,453],[28,45],[59,66]]],"transform":{"scale":[0.014262509409294391,0.008287363623347485],"translate":[100.08715977972349,0.771493766525083]},"objects":{"ne_110m_admin_0_countries":{"type":"GeometryCollection","geometries":[{"arcs":[[[0]],[[1,2,3]]],"type":"MultiPolygon","properties":{"featurecla":"Admin-0 country","scalerank":1,"LABELRANK":3,"SOVEREIGNT":"Malaysia","SOV_A3":"MYS","ADM0_DIF":0,"LEVEL":2,"TYPE":"Sovereign country","ADMIN":"Malaysia","ADM0_A3":"MYS","GEOU_DIF":0,"GEOUNIT":"Malaysia","GU_A3":"MYS","SU_DIF":0,"SUBUNIT":"Malaysia","SU_A3":"MYS","BRK_DIFF":0,"NAME":"Malaysia","NAME_LONG":"Malaysia","BRK_A3":"MYS","BRK_NAME":"Malaysia","BRK_GROUP":"","ABBREV":"Malay.","POSTAL":"MY","FORMAL_EN":"Malaysia","FORMAL_FR":"","NAME_CIAWF":"Malaysia","NOTE_ADM0":"","NOTE_BRK":"","NAME_SORT":"Malaysia","NAME_ALT":"","MAPCOLOR7":2,"MAPCOLOR8":4,"MAPCOLOR9":3,"MAPCOLOR13":6,"POP_EST":31381992,"POP_RANK":15,"GDP_MD_EST":863000,"POP_YEAR":2017,"LASTCENSUS":2010,"GDP_YEAR":2016,"ECONOMY":"6. Developing region","INCOME_GRP":"3. Upper middle income","WIKIPEDIA":-99,"FIPS_10_":"MY","ISO_A2":"MY","ISO_A3":"MYS","ISO_A3_EH":"MYS","ISO_N3":"458","UN_A3":"458","WB_A2":"MY","WB_A3":"MYS","WOE_ID":23424901,"WOE_ID_EH":23424901,"WOE_NOTE":"Exact WOE match as country","ADM0_A3_IS":"MYS","ADM0_A3_US":"MYS","ADM0_A3_UN":-99,"ADM0_A3_WB":-99,"CONTINENT":"Asia","REGION_UN":"Asia","SUBREGION":"South-Eastern Asia","REGION_WB":"East Asia & Pacific","NAME_LEN":8,"LONG_LEN":8,"ABBREV_LEN":6,"TINY":-99,"HOMEPART":1,"MIN_ZOOM":0,"MIN_LABEL":3,"MAX_LABEL":8,"NE_ID":1159321083,"WIKIDATAID":"Q833","NAME_AR":"ماليزيا","NAME_BN":"মালয়েশিয়া","NAME_DE":"Malaysia","NAME_EN":"Malaysia","NAME_ES":"Malasia","NAME_FR":"Malaisie","NAME_EL":"Μαλαισία","NAME_HI":"मलेशिया","NAME_HU":"Malajzia","NAME_ID":"Malaysia","NAME_IT":"Malesia","NAME_JA":"マレーシア","NAME_KO":"말레이시아","NAME_NL":"Maleisië","NAME_PL":"Malezja","NAME_PT":"Malásia","NAME_RU":"Малайзия","NAME_SV":"Malaysia","NAME_TR":"Malezya","NAME_VI":"Malaysia","NAME_ZH":"马来西亚"}},{"arcs":[[-3,4]],"type":"Polygon","properties":{"featurecla":"Admin-0 country","scalerank":1,"LABELRANK":6,"SOVEREIGNT":"Brunei","SOV_A3":"BRN","ADM0_DIF":0,"LEVEL":2,"TYPE":"Sovereign country","ADMIN":"Brunei","ADM0_A3":"BRN","GEOU_DIF":0,"GEOUNIT":"Brunei","GU_A3":"BRN","SU_DIF":0,"SUBUNIT":"Brunei","SU_A3":"BRN","BRK_DIFF":0,"NAME":"Brunei","NAME_LONG":"Brunei Darussalam","BRK_A3":"BRN","BRK_NAME":"Brunei","BRK_GROUP":"","ABBREV":"Brunei","POSTAL":"BN","FORMAL_EN":"Negara Brunei Darussalam","FORMAL_FR":"","NAME_CIAWF":"Brunei","NOTE_ADM0":"","NOTE_BRK":"","NAME_SORT":"Brunei","NAME_ALT":"","MAPCOLOR7":4,"MAPCOLOR8":6,"MAPCOLOR9":6,"MAPCOLOR13":12,"POP_EST":443593,"POP_RANK":10,"GDP_MD_EST":33730,"POP_YEAR":2017,"LASTCENSUS":2001,"GDP_YEAR":2016,"ECONOMY":"6. Developing region","INCOME_GRP":"2. High income: nonOECD","WIKIPEDIA":-99,"FIPS_10_":"BX","ISO_A2":"BN","ISO_A3":"BRN","ISO_A3_EH":"BRN","ISO_N3":"096","UN_A3":"096","WB_A2":"BN","WB_A3":"BRN","WOE_ID":23424773,"WOE_ID_EH":23424773,"WOE_NOTE":"Exact WOE match as country","ADM0_A3_IS":"BRN","ADM0_A3_US":"BRN","ADM0_A3_UN":-99,"ADM0_A3_WB":-99,"CONTINENT":"Asia","REGION_UN":"Asia","SUBREGION":"South-Eastern Asia","REGION_WB":"East Asia & Pacific","NAME_LEN":6,"LONG_LEN":17,"ABBREV_LEN":6,"TINY":2,"HOMEPART":1,"MIN_ZOOM":0,"MIN_LABEL":4,"MAX_LABEL":9,"NE_ID":1159320451,"WIKIDATAID":"Q921","NAME_AR":"بروناي","NAME_BN":"ব্রুনাই","NAME_DE":"Brunei","NAME_EN":"Brunei","NAME_ES":"Brunéi","NAME_FR":"Brunei","NAME_EL":"Μπρουνέι","NAME_HI":"ब्रुनेई","NAME_HU":"Brunei","NAME_ID":"Brunei Darussalam","NAME_IT":"Brunei","NAME_JA":"ブルネイ","NAME_KO":"브루나이","NAME_NL":"Brunei","NAME_PL":"Brunei","NAME_PT":"Brunei","NAME_RU":"Бруней","NAME_SV":"Brunei","NAME_TR":"Brunei","NAME_VI":"Brunei","NAME_ZH":"文莱"}}]}}}